[{"OBJECT_NAME":"STARLINK-30399","OBJECT_ID":"2023-148S","EPOCH":"2026-03-09T04:14:08.879424","MEAN_MOTION":15.30189213,"ECCENTRICITY":0.00013452,"INCLINATION":53.1624,"RA_OF_ASC_NODE":26.6571,"ARG_OF_PERICENTER":108.3132,"MEAN_ANOMALY":251.8015,"EPHEMERIS_TYPE":0,"CLASSIFICATION_TYPE":"U","NORAD_CAT_ID":57951,"ELEMENT_SET_NO":999,"REV_AT_EPOCH":13834,"BSTAR":-2.3928317e-5,"MEAN_MOTION_DOT":-1.068e-5,"MEAN_MOTION_DDOT":0},{"OBJECT_NAME":"TEVEL2-4","OBJECT_ID":"2025-052D","EPOCH":"2026-03-09T16:39:37.129536","MEAN_MOTION":15.30925813,"ECCENTRICITY":0.0004733,"INCLINATION":97.4009,"RA_OF_ASC_NODE":325.1237,"ARG_OF_PERICENTER":95.3468,"MEAN_ANOMALY":264.8313,"EPHEMERIS_TYPE":0,"CLASSIFICATION_TYPE":"U","NORAD_CAT_ID":63213,"ELEMENT_SET_NO":999,"REV_AT_EPOCH":5487,"BSTAR":0.00070362503,"MEAN_MOTION_DOT":0.0002099,"MEAN_MOTION_DDOT":0}]
