STARLINK-30399          
1 57951U 23148S   26068.17649166 -.00001068  00000+0 -23928-4 0  9991
2 57951  53.1624  26.6571 0001345 108.3132 251.8015 15.30189213138342
TEVEL2-4                
1 63213U 25052D   26068.69417973  .00020990  00000+0  70363-3 0  9998
2 63213  97.4009 325.1237 0004733  95.3468 264.8313 15.30925813 54879
